[{"OBJECT_NAME":"FENGYUN 3H","OBJECT_ID":"2025-219A","EPOCH":"2026-03-09T21:29:42.222912","MEAN_MOTION":14.19932737,"ECCENTRICITY":0.00012969,"INCLINATION":98.6685,"RA_OF_ASC_NODE":11.64,"ARG_OF_PERICENTER":61.8301,"MEAN_ANOMALY":298.3007,"EPHEMERIS_TYPE":0,"CLASSIFICATION_TYPE":"U","NORAD_CAT_ID":65815,"ELEMENT_SET_NO":999,"REV_AT_EPOCH":2329,"BSTAR":7.8784575e-5,"MEAN_MOTION_DOT":1.24e-6,"MEAN_MOTION_DDOT":0},{"OBJECT_NAME":"FENGYUN 1C DEB","OBJECT_ID":"1999-025ABT","EPOCH":"2026-03-09T13:23:14.260416","MEAN_MOTION":14.13292816,"ECCENTRICITY":0.00533085,"INCLINATION":98.6881,"RA_OF_ASC_NODE":66.224,"ARG_OF_PERICENTER":42.3031,"MEAN_ANOMALY":77.4349,"EPHEMERIS_TYPE":0,"CLASSIFICATION_TYPE":"U","NORAD_CAT_ID":30356,"ELEMENT_SET_NO":999,"REV_AT_EPOCH":98247,"BSTAR":0.00093082621,"MEAN_MOTION_DOT":1.727e-5,"MEAN_MOTION_DDOT":0}]
